start=new Date('2023-06-01T00:00:00.000Z').valueOf();
sats=[{"RCS_SIZE":"LARGE","RA_OF_ASC_NODE":"273.8713","ECCENTRICITY":"0.00011180","TLE_LINE2":"2 45181  53.0551 273.8713 0001118  98.4422 261.6694 15.06397360182163","EPHEMERIS_TYPE":"0","ELEMENT_SET_NO":"999","CENTER_NAME":"EARTH","SEMIMAJOR_AXIS":"6925.357","REV_AT_EPOCH":"18216","NORAD_CAT_ID":"45181","CLASSIFICATION_TYPE":"U","PERIAPSIS":"546.447","OBJECT_NAME":"STARLINK-1200","BSTAR":"0.00038110000000","PERIOD":"95.592","INCLINATION":"53.0551","GP_ID":"232924735","COUNTRY_CODE":"US","MEAN_ELEMENT_THEORY":"SGP4","MEAN_ANOMALY":"261.6694","FILE":"3922037","MEAN_MOTION_DDOT":"0.0000000000000","REF_FRAME":"TEME","TIME_SYSTEM":"UTC","MEAN_MOTION_DOT":"0.00005399","MEAN_MOTION":"15.06397360","APOAPSIS":"547.996","OBJECT_ID":"2020-012D","ARG_OF_PERICENTER":"98.4422","EPOCH":"2023-05-31T18:02:27.603168","LAUNCH_DATE":"2020-02-17","DECAY_DATE":null,"SITE":"AFETR","OBJECT_TYPE":"PAYLOAD","TLE_LINE1":"1 45181U 20012D   23151.75170837  .00005399  00000-0  38110-3 0  9996"},{"FILE":"3921767","REF_FRAME":"TEME","MEAN_MOTION_DDOT":"0.0000000000000","TIME_SYSTEM":"UTC","BSTAR":"0.00029305000000","PERIOD":"95.592","INCLINATION":"53.0535","GP_ID":"232891472","COUNTRY_CODE":"US","MEAN_ANOMALY":"248.6622","MEAN_ELEMENT_THEORY":"SGP4","OBJECT_NAME":"STARLINK-1201","NORAD_CAT_ID":"45182","CLASSIFICATION_TYPE":"U","PERIAPSIS":"546.448","SITE":"AFETR","OBJECT_TYPE":"PAYLOAD","TLE_LINE1":"1 45182U 20012E   23151.57295049  .00004086  00000-0  29305-3 0  9998","LAUNCH_DATE":"2020-02-17","DECAY_DATE":null,"ARG_OF_PERICENTER":"111.4485","EPOCH":"2023-05-31T13:45:02.922336","MEAN_MOTION_DOT":"0.00004086","MEAN_MOTION":"15.06399556","APOAPSIS":"547.982","OBJECT_ID":"2020-012E","ECCENTRICITY":"0.00011070","TLE_LINE2":"2 45182  53.0535 254.6736 0001107 111.4485 248.6622 15.06399556182267","EPHEMERIS_TYPE":"0","RA_OF_ASC_NODE":"254.6736","RCS_SIZE":"LARGE","REV_AT_EPOCH":"18226","CENTER_NAME":"EARTH","SEMIMAJOR_AXIS":"6925.350","ELEMENT_SET_NO":"999"},{"CENTER_NAME":"EARTH","SEMIMAJOR_AXIS":"6925.369","ELEMENT_SET_NO":"999","REV_AT_EPOCH":"18215","RA_OF_ASC_NODE":"274.3052","RCS_SIZE":"LARGE","ECCENTRICITY":"0.00010610","TLE_LINE2":"2 45183  53.0543 274.3052 0001061  78.7539 281.3569 15.06393293182155","EPHEMERIS_TYPE":"0","ARG_OF_PERICENTER":"78.7539","EPOCH":"2023-05-31T15:44:27.883392","MEAN_MOTION_DOT":"-0.00000525","MEAN_MOTION":"15.06393293","APOAPSIS":"547.969","OBJECT_ID":"2020-012F","SITE":"AFETR","OBJECT_TYPE":"PAYLOAD","TLE_LINE1":"1 45183U 20012F   23151.65587828 -.00000525  00000-0 -16338-4 0  9996","LAUNCH_DATE":"2020-02-17","DECAY_DATE":null,"OBJECT_NAME":"STARLINK-1202","NORAD_CAT_ID":"45183","CLASSIFICATION_TYPE":"U","PERIAPSIS":"546.499","FILE":"3922037","REF_FRAME":"TEME","MEAN_MOTION_DDOT":"0.0000000000000","TIME_SYSTEM":"UTC","PERIOD":"95.593","BSTAR":"-0.00001633800000","INCLINATION":"53.0543","GP_ID":"232923734","COUNTRY_CODE":"US","MEAN_ANOMALY":"281.3569","MEAN_ELEMENT_THEORY":"SGP4"},{"RCS_SIZE":"LARGE","RA_OF_ASC_NODE":"254.9382","ECCENTRICITY":"0.00008160","EPHEMERIS_TYPE":"0","TLE_LINE2":"2 45184  53.0538 254.9382 0000816  56.8171 303.2896 15.06417408181731","SEMIMAJOR_AXIS":"6925.295","CENTER_NAME":"EARTH","ELEMENT_SET_NO":"999","REV_AT_EPOCH":"18173","OBJECT_NAME":"STARLINK-1205","CLASSIFICATION_TYPE":"U","NORAD_CAT_ID":"45184","PERIAPSIS":"546.595","FILE":"3921839","TIME_SYSTEM":"UTC","REF_FRAME":"TEME","MEAN_MOTION_DDOT":"0.0000000000000","COUNTRY_CODE":"US","GP_ID":"232900324","INCLINATION":"53.0538","PERIOD":"95.591","BSTAR":"0.00172610000000","MEAN_ELEMENT_THEORY":"SGP4","MEAN_ANOMALY":"303.2896","ARG_OF_PERICENTER":"56.8171","EPOCH":"2023-05-31T12:20:07.849536","MEAN_MOTION":"15.06417408","MEAN_MOTION_DOT":"0.00025534","OBJECT_ID":"2020-012G","APOAPSIS":"547.725","OBJECT_TYPE":"PAYLOAD","SITE":"AFETR","TLE_LINE1":"1 45184U 20012G   23151.51397974  .00025534  00000-0  17261-2 0  9992","LAUNCH_DATE":"2020-02-17","DECAY_DATE":null},{"REV_AT_EPOCH":"18209","SEMIMAJOR_AXIS":"6925.365","CENTER_NAME":"EARTH","ELEMENT_SET_NO":"999","ECCENTRICITY":"0.00012800","EPHEMERIS_TYPE":"0","TLE_LINE2":"2 45185  53.0539 274.3356 0001280  83.4783 276.6351 15.06394632182093","RA_OF_ASC_NODE":"274.3356","RCS_SIZE":"LARGE","OBJECT_TYPE":"PAYLOAD","SITE":"AFETR","TLE_LINE1":"1 45185U 20012H   23151.64850380  .00022846  00000-0  15479-2 0  9994","LAUNCH_DATE":"2020-02-17","DECAY_DATE":null,"ARG_OF_PERICENTER":"83.4783","EPOCH":"2023-05-31T15:33:50.728320","MEAN_MOTION_DOT":"0.00022846","MEAN_MOTION":"15.06394632","OBJECT_ID":"2020-012H","APOAPSIS":"548.116","FILE":"3922037","TIME_SYSTEM":"UTC","MEAN_MOTION_DDOT":"0.0000000000000","REF_FRAME":"TEME","GP_ID":"232924236","COUNTRY_CODE":"US","PERIOD":"95.592","BSTAR":"0.00154790000000","INCLINATION":"53.0539","MEAN_ELEMENT_THEORY":"SGP4","MEAN_ANOMALY":"276.6351","OBJECT_NAME":"STARLINK-1216","CLASSIFICATION_TYPE":"U","NORAD_CAT_ID":"45185","PERIAPSIS":"546.344"},{"DECAY_DATE":null,"LAUNCH_DATE":"2020-02-17","TLE_LINE1":"1 45186U 20012J   23151.66326004  .00009089  00000-0  62821-3 0  9996","SITE":"AFETR","OBJECT_TYPE":"PAYLOAD","APOAPSIS":"547.800","OBJECT_ID":"2020-012J","MEAN_MOTION_DOT":"0.00009089","MEAN_MOTION":"15.06403970","EPOCH":"2023-05-31T15:55:05.667456","ARG_OF_PERICENTER":"99.5134","MEAN_ANOMALY":"260.5953","MEAN_ELEMENT_THEORY":"SGP4","BSTAR":"0.00062821000000","PERIOD":"95.592","INCLINATION":"53.0544","GP_ID":"232924487","COUNTRY_CODE":"US","MEAN_MOTION_DDOT":"0.0000000000000","REF_FRAME":"TEME","TIME_SYSTEM":"UTC","FILE":"3922037","PERIAPSIS":"546.602","NORAD_CAT_ID":"45186","CLASSIFICATION_TYPE":"U","OBJECT_NAME":"STARLINK-1224","REV_AT_EPOCH":"18209","ELEMENT_SET_NO":"999","CENTER_NAME":"EARTH","SEMIMAJOR_AXIS":"6925.336","TLE_LINE2":"2 45186  53.0544 274.2704 0000865  99.5134 260.5953 15.06403970182098","EPHEMERIS_TYPE":"0","ECCENTRICITY":"0.00008650","RCS_SIZE":"LARGE","RA_OF_ASC_NODE":"274.2704"},{"REV_AT_EPOCH":"18213","CENTER_NAME":"EARTH","SEMIMAJOR_AXIS":"6925.314","ELEMENT_SET_NO":"999","TLE_LINE2":"2 45187  53.0531 274.5493 0000335  62.6303 297.4720 15.06411163182133","EPHEMERIS_TYPE":"0","ECCENTRICITY":"0.00003350","RA_OF_ASC_NODE":"274.5493","RCS_SIZE":"LARGE","TLE_LINE1":"1 45187U 20012K   23151.60058377  .00009364  00000-0  64647-3 0  9990","SITE":"AFETR","OBJECT_TYPE":"PAYLOAD","DECAY_DATE":null,"LAUNCH_DATE":"2020-02-17","EPOCH":"2023-05-31T14:24:50.437728","ARG_OF_PERICENTER":"62.6303","APOAPSIS":"547.411","OBJECT_ID":"2020-012K","MEAN_MOTION_DOT":"0.00009364","MEAN_MOTION":"15.06411163","MEAN_MOTION_DDOT":"0.0000000000000","REF_FRAME":"TEME","TIME_SYSTEM":"UTC","FILE":"3921767","MEAN_ELEMENT_THEORY":"SGP4","MEAN_ANOMALY":"297.4720","BSTAR":"0.00064647000000","PERIOD":"95.591","INCLINATION":"53.0531","GP_ID":"232890228","COUNTRY_CODE":"US","OBJECT_NAME":"STARLINK-1225","PERIAPSIS":"546.947","NORAD_CAT_ID":"45187","CLASSIFICATION_TYPE":"U"},{"TLE_LINE1":"1 45188U 20012L   23151.43104208  .00005849  00000-0  41121-3 0  9993","SITE":"AFETR","OBJECT_TYPE":"PAYLOAD","DECAY_DATE":null,"LAUNCH_DATE":"2020-02-17","EPOCH":"2023-05-31T10:20:42.035712","ARG_OF_PERICENTER":"77.6742","APOAPSIS":"547.969","OBJECT_ID":"2020-012L","MEAN_MOTION_DOT":"0.00005849","MEAN_MOTION":"15.06402774","REF_FRAME":"TEME","MEAN_MOTION_DDOT":"0.0000000000000","TIME_SYSTEM":"UTC","FILE":"3921767","MEAN_ELEMENT_THEORY":"SGP4","MEAN_ANOMALY":"282.4370","PERIOD":"95.592","INCLINATION":"53.0533","BSTAR":"0.00041121000000","COUNTRY_CODE":"US","GP_ID":"232890979","OBJECT_NAME":"STARLINK-1228","PERIAPSIS":"546.441","NORAD_CAT_ID":"45188","CLASSIFICATION_TYPE":"U","REV_AT_EPOCH":"18262","CENTER_NAME":"EARTH","SEMIMAJOR_AXIS":"6925.340","ELEMENT_SET_NO":"999","TLE_LINE2":"2 45188  53.0533 235.3145 0001103  77.6742 282.4370 15.06402774182629","EPHEMERIS_TYPE":"0","ECCENTRICITY":"0.00011030","RA_OF_ASC_NODE":"235.3145","RCS_SIZE":"LARGE"},{"PERIAPSIS":"546.359","CLASSIFICATION_TYPE":"U","NORAD_CAT_ID":"45189","OBJECT_NAME":"STARLINK-1230","MEAN_ELEMENT_THEORY":"SGP4","MEAN_ANOMALY":"268.9600","COUNTRY_CODE":"US","GP_ID":"232924736","INCLINATION":"53.0535","PERIOD":"95.593","BSTAR":"0.00023793000000","TIME_SYSTEM":"UTC","MEAN_MOTION_DDOT":"0.0000000000000","REF_FRAME":"TEME","FILE":"3922037","OBJECT_ID":"2020-012M","APOAPSIS":"548.103","MEAN_MOTION_DOT":"0.00003264","MEAN_MOTION":"15.06394293","EPOCH":"2023-05-31T14:30:10.789920","ARG_OF_PERICENTER":"91.1533","DECAY_DATE":null,"LAUNCH_DATE":"2020-02-17","TLE_LINE1":"1 45189U 20012M   23151.60429155  .00003264  00000-0  23793-3 0  9998","OBJECT_TYPE":"PAYLOAD","SITE":"AFETR","RCS_SIZE":"LARGE","RA_OF_ASC_NODE":"274.5341","EPHEMERIS_TYPE":"0","TLE_LINE2":"2 45189  53.0535 274.5341 0001259  91.1533 268.9600 15.06394293179364","ECCENTRICITY":"0.00012590","ELEMENT_SET_NO":"999","SEMIMAJOR_AXIS":"6925.366","CENTER_NAME":"EARTH","REV_AT_EPOCH":"17936"},{"ECCENTRICITY":"0.00009150","EPHEMERIS_TYPE":"0","TLE_LINE2":"2 45190  53.0538 234.7510 0000915  84.9936 275.1158 15.06396197182592","RA_OF_ASC_NODE":"234.7510","RCS_SIZE":"LARGE","REV_AT_EPOCH":"18259","SEMIMAJOR_AXIS":"6925.360","CENTER_NAME":"EARTH","ELEMENT_SET_NO":"999","FILE":"3921767","TIME_SYSTEM":"UTC","REF_FRAME":"TEME","MEAN_MOTION_DDOT":"0.0000000000000","GP_ID":"232891473","COUNTRY_CODE":"US","PERIOD":"95.592","BSTAR":"0.00020675000000","INCLINATION":"53.0538","MEAN_ELEMENT_THEORY":"SGP4","MEAN_ANOMALY":"275.1158","OBJECT_NAME":"STARLINK-1234","CLASSIFICATION_TYPE":"U","NORAD_CAT_ID":"45190","PERIAPSIS":"546.592","OBJECT_TYPE":"PAYLOAD","SITE":"AFETR","TLE_LINE1":"1 45190U 20012N   23151.55635958  .00002799  00000-0  20675-3 0  9992","LAUNCH_DATE":"2020-02-17","DECAY_DATE":null,"ARG_OF_PERICENTER":"84.9936","EPOCH":"2023-05-31T13:21:09.467712","MEAN_MOTION":"15.06396197","MEAN_MOTION_DOT":"0.00002799","OBJECT_ID":"2020-012N","APOAPSIS":"547.859"}];
